FLOCK 4BE-3             
1 60561U 24149CX  26186.18887109  .00030315  00000+0  70792-3 0  9992
2 60561  97.3690 270.2799 0004035 199.9964 160.1126 15.42139466105115
FLOCK 4BE-19            
1 60563U 24149CZ  26186.19907111  .00039002  00000+0  81772-3 0  9993
2 60563  97.3738 271.9177 0004910 206.8432 153.2563 15.45291049105205
FLOCK 4G-8              
1 62613U 25009E   26186.20250632  .00017048  00000+0  58701-3 0  9990
2 62613  97.4003 268.1352 0003077 231.4207 128.6758 15.30105913 81673
FLOCK 4G-13             
1 62621U 25009N   26186.20992735  .00130490  00000+0  24890-2 0  9994
2 62621  97.3943 269.8317 0005741 223.1604 136.9197 15.47660273 81786
FLOCK 4G-9              
1 62622U 25009P   26186.21394871  .00015228  00000+0  55303-3 0  9998
2 62622  97.3953 267.0332 0003251 249.4574 110.6317 15.28386559 81612
FLOCK 4G-7              
1 62624U 25009R   26186.18399001  .00018520  00000+0  64554-3 0  9992
2 62624  97.3938 267.4026 0001577 219.1172 140.9955 15.29691513 81656
FLOCK 4G-12             
1 62625U 25009S   26186.17875937  .00019717  00000+0  68839-3 0  9998
2 62625  97.4016 267.9373 0003216 228.6206 131.4758 15.29621526 81653
FLOCK 4G-11             
1 62629U 25009W   26186.22974556  .00019054  00000+0  66323-3 0  9995
2 62629  97.3918 267.5579 0001619 224.6405 135.4705 15.29730522 81678
FLOCK 4G-26             
1 62633U 25009AA  26186.17911502  .00021035  00000+0  72781-3 0  9993
2 62633  97.4011 268.0948 0002633 213.8730 146.2342 15.29904780 81667
FLOCK 4G-28             
1 62634U 25009AB  26186.17887595  .00015274  00000+0  44959-3 0  9992
2 62634  97.4022 270.7990 0001179 183.3038 176.8198 15.35156534 81844
FLOCK 4G-20             
1 62636U 25009AD  26186.23449936  .00202477  00000+0  26088-2 0  9999
2 62636  97.3842 271.2683 0005568 225.8537 134.2261 15.58323173 81920
FLOCK 4G-24             
1 62637U 25009AE  26186.19239057  .00016834  00000+0  57747-3 0  9993
2 62637  97.4021 268.4076 0002685 196.4365 163.6789 15.30230355 81687
FLOCK 4G-3              
1 62639U 25009AG  26186.18232386  .00019401  00000+0  67529-3 0  9994
2 62639  97.4020 268.1129 0002236 202.3120 157.8023 15.29728073 81652
FLOCK 4G-27             
1 62641U 25009AJ  26186.20150267  .00016777  00000+0  58562-3 0  9997
2 62641  97.3927 267.4931 0001611 200.4043 159.7133 15.29666652 81659
FLOCK 4G-29             
1 62642U 25009AK  26186.18724310  .00016299  00000+0  56775-3 0  9994
2 62642  97.4016 268.0784 0002391 197.2943 162.8216 15.29740694 81657
FLOCK 4G-22             
1 62645U 25009AN  26186.20506488  .00017737  00000+0  61955-3 0  9998
2 62645  97.4001 268.1334 0001990 190.3795 169.7405 15.29631664 81673
