{"fetched_at":"2026-07-06T08:46:41.354Z","source":"https://celestrak.org/NORAD/elements/gp.php?GROUP=planet&FORMAT=JSON","constellation":"superdove","records":[{"OBJECT_NAME":"FLOCK 4BE-3","OBJECT_ID":"2024-149CX","EPOCH":"2026-07-05T04:31:58.462176","CLASSIFICATION_TYPE":"U","MEAN_MOTION":15.42139466,"ECCENTRICITY":0.0004036,"INCLINATION":97.369,"RA_OF_ASC_NODE":270.2799,"ARG_OF_PERICENTER":199.9964,"MEAN_ANOMALY":160.1126,"EPHEMERIS_TYPE":0,"NORAD_CAT_ID":60561,"ELEMENT_SET_NO":999,"REV_AT_EPOCH":10511,"BSTAR":0.00070792,"MEAN_MOTION_DOT":0.00030315,"MEAN_MOTION_DDOT":0},{"OBJECT_NAME":"FLOCK 4BE-19","OBJECT_ID":"2024-149CZ","EPOCH":"2026-07-05T04:46:39.743040","CLASSIFICATION_TYPE":"U","MEAN_MOTION":15.45291049,"ECCENTRICITY":0.0004911,"INCLINATION":97.3738,"RA_OF_ASC_NODE":271.9177,"ARG_OF_PERICENTER":206.8432,"MEAN_ANOMALY":153.2563,"EPHEMERIS_TYPE":0,"NORAD_CAT_ID":60563,"ELEMENT_SET_NO":999,"REV_AT_EPOCH":10520,"BSTAR":0.00081772,"MEAN_MOTION_DOT":0.00039002,"MEAN_MOTION_DDOT":0},{"OBJECT_NAME":"FLOCK 4G-8","OBJECT_ID":"2025-009E","EPOCH":"2026-07-05T04:51:36.546048","CLASSIFICATION_TYPE":"U","MEAN_MOTION":15.30105913,"ECCENTRICITY":0.0003077,"INCLINATION":97.4003,"RA_OF_ASC_NODE":268.1352,"ARG_OF_PERICENTER":231.4207,"MEAN_ANOMALY":128.6758,"EPHEMERIS_TYPE":0,"NORAD_CAT_ID":62613,"ELEMENT_SET_NO":999,"REV_AT_EPOCH":8167,"BSTAR":0.00058701,"MEAN_MOTION_DOT":0.00017048,"MEAN_MOTION_DDOT":0},{"OBJECT_NAME":"FLOCK 4G-13","OBJECT_ID":"2025-009N","EPOCH":"2026-07-05T05:02:17.723040","CLASSIFICATION_TYPE":"U","MEAN_MOTION":15.47660273,"ECCENTRICITY":0.0005742,"INCLINATION":97.3943,"RA_OF_ASC_NODE":269.8317,"ARG_OF_PERICENTER":223.1604,"MEAN_ANOMALY":136.9197,"EPHEMERIS_TYPE":0,"NORAD_CAT_ID":62621,"ELEMENT_SET_NO":999,"REV_AT_EPOCH":8178,"BSTAR":0.002489,"MEAN_MOTION_DOT":0.0013049,"MEAN_MOTION_DDOT":0},{"OBJECT_NAME":"FLOCK 4G-9","OBJECT_ID":"2025-009P","EPOCH":"2026-07-05T05:08:05.167680","CLASSIFICATION_TYPE":"U","MEAN_MOTION":15.28386559,"ECCENTRICITY":0.0003252,"INCLINATION":97.3953,"RA_OF_ASC_NODE":267.0332,"ARG_OF_PERICENTER":249.4574,"MEAN_ANOMALY":110.6317,"EPHEMERIS_TYPE":0,"NORAD_CAT_ID":62622,"ELEMENT_SET_NO":999,"REV_AT_EPOCH":8161,"BSTAR":0.00055303,"MEAN_MOTION_DOT":0.00015228,"MEAN_MOTION_DDOT":0},{"OBJECT_NAME":"FLOCK 4G-7","OBJECT_ID":"2025-009R","EPOCH":"2026-07-05T04:24:56.736000","CLASSIFICATION_TYPE":"U","MEAN_MOTION":15.29691512,"ECCENTRICITY":0.0001577,"INCLINATION":97.3938,"RA_OF_ASC_NODE":267.4026,"ARG_OF_PERICENTER":219.1172,"MEAN_ANOMALY":140.9955,"EPHEMERIS_TYPE":0,"NORAD_CAT_ID":62624,"ELEMENT_SET_NO":999,"REV_AT_EPOCH":8165,"BSTAR":0.00064554,"MEAN_MOTION_DOT":0.0001852,"MEAN_MOTION_DDOT":0},{"OBJECT_NAME":"FLOCK 4G-12","OBJECT_ID":"2025-009S","EPOCH":"2026-07-05T04:17:24.808704","CLASSIFICATION_TYPE":"U","MEAN_MOTION":15.29621526,"ECCENTRICITY":0.0003216,"INCLINATION":97.4016,"RA_OF_ASC_NODE":267.9373,"ARG_OF_PERICENTER":228.6206,"MEAN_ANOMALY":131.4758,"EPHEMERIS_TYPE":0,"NORAD_CAT_ID":62625,"ELEMENT_SET_NO":999,"REV_AT_EPOCH":8165,"BSTAR":0.00068839,"MEAN_MOTION_DOT":0.00019717,"MEAN_MOTION_DDOT":0},{"OBJECT_NAME":"FLOCK 4G-11","OBJECT_ID":"2025-009W","EPOCH":"2026-07-05T05:30:50.016384","CLASSIFICATION_TYPE":"U","MEAN_MOTION":15.29730522,"ECCENTRICITY":0.000162,"INCLINATION":97.3918,"RA_OF_ASC_NODE":267.5579,"ARG_OF_PERICENTER":224.6405,"MEAN_ANOMALY":135.4705,"EPHEMERIS_TYPE":0,"NORAD_CAT_ID":62629,"ELEMENT_SET_NO":999,"REV_AT_EPOCH":8167,"BSTAR":0.00066323,"MEAN_MOTION_DOT":0.00019054,"MEAN_MOTION_DDOT":0},{"OBJECT_NAME":"FLOCK 4G-26","OBJECT_ID":"2025-009AA","EPOCH":"2026-07-05T04:17:55.536864","CLASSIFICATION_TYPE":"U","MEAN_MOTION":15.29904779,"ECCENTRICITY":0.0002634,"INCLINATION":97.4011,"RA_OF_ASC_NODE":268.0948,"ARG_OF_PERICENTER":213.873,"MEAN_ANOMALY":146.2342,"EPHEMERIS_TYPE":0,"NORAD_CAT_ID":62633,"ELEMENT_SET_NO":999,"REV_AT_EPOCH":8166,"BSTAR":0.00072781,"MEAN_MOTION_DOT":0.00021035,"MEAN_MOTION_DDOT":0},{"OBJECT_NAME":"FLOCK 4G-28","OBJECT_ID":"2025-009AB","EPOCH":"2026-07-05T04:17:34.882080","CLASSIFICATION_TYPE":"U","MEAN_MOTION":15.35156534,"ECCENTRICITY":0.000118,"INCLINATION":97.4022,"RA_OF_ASC_NODE":270.799,"ARG_OF_PERICENTER":183.3038,"MEAN_ANOMALY":176.8198,"EPHEMERIS_TYPE":0,"NORAD_CAT_ID":62634,"ELEMENT_SET_NO":999,"REV_AT_EPOCH":8184,"BSTAR":0.00044959,"MEAN_MOTION_DOT":0.00015274,"MEAN_MOTION_DDOT":0},{"OBJECT_NAME":"FLOCK 4G-20","OBJECT_ID":"2025-009AD","EPOCH":"2026-07-05T05:37:40.743840","CLASSIFICATION_TYPE":"U","MEAN_MOTION":15.58323173,"ECCENTRICITY":0.0005568,"INCLINATION":97.3842,"RA_OF_ASC_NODE":271.2683,"ARG_OF_PERICENTER":225.8537,"MEAN_ANOMALY":134.2261,"EPHEMERIS_TYPE":0,"NORAD_CAT_ID":62636,"ELEMENT_SET_NO":999,"REV_AT_EPOCH":8192,"BSTAR":0.0026088,"MEAN_MOTION_DOT":0.00202477,"MEAN_MOTION_DDOT":0},{"OBJECT_NAME":"FLOCK 4G-24","OBJECT_ID":"2025-009AE","EPOCH":"2026-07-05T04:37:02.545248","CLASSIFICATION_TYPE":"U","MEAN_MOTION":15.30230355,"ECCENTRICITY":0.0002685,"INCLINATION":97.4021,"RA_OF_ASC_NODE":268.4076,"ARG_OF_PERICENTER":196.4365,"MEAN_ANOMALY":163.6789,"EPHEMERIS_TYPE":0,"NORAD_CAT_ID":62637,"ELEMENT_SET_NO":999,"REV_AT_EPOCH":8168,"BSTAR":0.00057747,"MEAN_MOTION_DOT":0.00016834,"MEAN_MOTION_DDOT":0},{"OBJECT_NAME":"FLOCK 4G-3","OBJECT_ID":"2025-009AG","EPOCH":"2026-07-05T04:22:32.780640","CLASSIFICATION_TYPE":"U","MEAN_MOTION":15.29728073,"ECCENTRICITY":0.0002237,"INCLINATION":97.402,"RA_OF_ASC_NODE":268.1129,"ARG_OF_PERICENTER":202.312,"MEAN_ANOMALY":157.8023,"EPHEMERIS_TYPE":0,"NORAD_CAT_ID":62639,"ELEMENT_SET_NO":999,"REV_AT_EPOCH":8165,"BSTAR":0.00067529,"MEAN_MOTION_DOT":0.00019401,"MEAN_MOTION_DDOT":0},{"OBJECT_NAME":"FLOCK 4G-27","OBJECT_ID":"2025-009AJ","EPOCH":"2026-07-05T04:50:09.829824","CLASSIFICATION_TYPE":"U","MEAN_MOTION":15.29666652,"ECCENTRICITY":0.0001611,"INCLINATION":97.3927,"RA_OF_ASC_NODE":267.4931,"ARG_OF_PERICENTER":200.4043,"MEAN_ANOMALY":159.7133,"EPHEMERIS_TYPE":0,"NORAD_CAT_ID":62641,"ELEMENT_SET_NO":999,"REV_AT_EPOCH":8165,"BSTAR":0.00058562,"MEAN_MOTION_DOT":0.00016777,"MEAN_MOTION_DDOT":0},{"OBJECT_NAME":"FLOCK 4G-29","OBJECT_ID":"2025-009AK","EPOCH":"2026-07-05T04:29:37.802976","CLASSIFICATION_TYPE":"U","MEAN_MOTION":15.29740694,"ECCENTRICITY":0.0002391,"INCLINATION":97.4016,"RA_OF_ASC_NODE":268.0784,"ARG_OF_PERICENTER":197.2943,"MEAN_ANOMALY":162.8216,"EPHEMERIS_TYPE":0,"NORAD_CAT_ID":62642,"ELEMENT_SET_NO":999,"REV_AT_EPOCH":8165,"BSTAR":0.00056775,"MEAN_MOTION_DOT":0.00016299,"MEAN_MOTION_DDOT":0},{"OBJECT_NAME":"FLOCK 4G-22","OBJECT_ID":"2025-009AN","EPOCH":"2026-07-05T04:55:17.604768","CLASSIFICATION_TYPE":"U","MEAN_MOTION":15.29631664,"ECCENTRICITY":0.000199,"INCLINATION":97.4001,"RA_OF_ASC_NODE":268.1334,"ARG_OF_PERICENTER":190.3795,"MEAN_ANOMALY":169.7405,"EPHEMERIS_TYPE":0,"NORAD_CAT_ID":62645,"ELEMENT_SET_NO":999,"REV_AT_EPOCH":8167,"BSTAR":0.00061955,"MEAN_MOTION_DOT":0.00017737,"MEAN_MOTION_DDOT":0}]}
